NORAD_CAT_ID,OBJECT_NAME,OBJECT_TYPE,EPOCH,MEAN_MOTION,ECCENTRICITY,INCLINATION,RA_OF_ASC_NODE,ARG_OF_PERICENTER,MEAN_ANOMALY,BSTAR,MEAN_MOTION_DOT,MEAN_MOTION_DDOT,TLE_LINE0,TLE_LINE1,TLE_LINE2,SEMIMAJOR_AXIS,PERIOD,APOGEE,PERIGEE,DECAYED
52503.0,STARLINK-3861,PAYLOAD,2023-08-24 07:15:06,15.088435,0.0001331,53.2159,246.8603,85.2105,274.9039,4.6358e-05,4.5e-06,0.0,0 STARLINK-3861,1 52503U 22049BE  23236.30216158  .00000450  00000-0  46358-4 0  9993,2 52503  53.2159 246.8603 0001331  85.2105 274.9039 15.08843500 72377,6917.87,95.437,540.655,538.814,0.0
52503.0,STARLINK-3861,PAYLOAD,2023-08-25 07:05:53,15.08840826,0.0001316,53.2153,242.3999,83.2332,276.881,6.4945e-05,7.46e-06,0.0,0 STARLINK-3861,1 52503U 22049BE  23237.29576230  .00000746  00000-0  64945-4 0  9992,2 52503  53.2153 242.3999 0001316  83.2332 276.8810 15.08840826 72526,6917.878,95.438,540.653,538.832,0.0
52503.0,STARLINK-3861,PAYLOAD,2023-08-26 00:35:08,15.08837772,0.0001322,53.2152,239.1289,88.3487,271.7657,1.128e-05,-1.08e-06,0.0,0 STARLINK-3861,1 52503U 22049BE  23238.02440598 -.00000108  00000-0  11280-4 0  9998,2 52503  53.2152 239.1289 0001322  88.3487 271.7657 15.08837772 72793,6917.887,95.438,540.667,538.838,0.0
52503.0,STARLINK-3861,PAYLOAD,2023-08-26 06:56:41,15.08837241,0.0001407,53.2163,237.9401,96.2995,263.8157,6.3944e-06,-1.86e-06,0.0,0 STARLINK-3861,1 52503U 22049BE  23238.28936656 -.00000186  00000-0  63944-5 0  9992,2 52503  53.2163 237.9401 0001407  96.2995 263.8157 15.08837241 72678,6917.889,95.438,540.727,538.78,0.0
52503.0,STARLINK-3861,PAYLOAD,2023-08-27 05:12:05,15.08837356,0.0001414,53.2166,233.7771,97.9865,262.1288,2.0065e-05,3.1e-07,0.0,0 STARLINK-3861,1 52503U 22049BE  23239.21672766  .00000031  00000-0  20065-4 0  9999,2 52503  53.2166 233.7771 0001414  97.9865 262.1288 15.08837356 72974,6917.888,95.438,540.732,538.775,0.0
52503.0,STARLINK-3861,PAYLOAD,2023-08-28 16:10:34,15.08837041,0.000134,53.2164,227.235,92.0873,268.0273,5.9194e-05,6.54e-06,0.0,0 STARLINK-3861,1 52503U 22049BE  23240.67401024  .00000654  00000-0  59194-4 0  9994,2 52503  53.2164 227.2350 0001340  92.0873 268.0273 15.08837041 73191,6917.889,95.438,540.681,538.827,0.0
52503.0,STARLINK-3861,PAYLOAD,2023-08-29 06:29:02,15.08837629,0.0001394,53.2165,224.5586,93.0983,267.0168,4.9076e-05,4.93e-06,0.0,0 STARLINK-3861,1 52503U 22049BE  23241.27017192  .00000493  00000-0  49076-4 0  9999,2 52503  53.2165 224.5586 0001394  93.0983 267.0168 15.08837629 73122,6917.888,95.438,540.717,538.788,0.0
52503.0,STARLINK-3861,PAYLOAD,2023-08-29 23:58:17,15.08837501,0.0001393,53.2164,221.2871,91.3957,268.7194,3.2764e-05,2.34e-06,0.0,0 STARLINK-3861,1 52503U 22049BE  23241.99881405  .00000234  00000-0  32764-4 0  9993,2 52503  53.2164 221.2871 0001393  91.3957 268.7194 15.08837501 73398,6917.888,95.438,540.717,538.789,0.0
52503.0,STARLINK-3861,PAYLOAD,2023-08-30 15:52:08,15.08843511,0.0001389,53.2165,218.3112,86.8985,273.2166,-4.9368e-05,-1.074e-05,0.0,0 STARLINK-3861,1 52503U 22049BE  23242.66121241 -.00001074  00000-0 -49368-4 0  9996,2 52503  53.2165 218.3112 0001389  86.8985 273.2166 15.08843511 73331,6917.87,95.437,540.696,538.774,0.0
52503.0,STARLINK-3861,PAYLOAD,2023-08-31 04:35:13,15.08838313,0.000143,53.2167,215.9323,90.2302,269.8854,5.4535e-05,5.8e-06,0.0,0 STARLINK-3861,1 52503U 22049BE  23243.19113421  .00000580  00000-0  54535-4 0  9997,2 52503  53.2167 215.9323 0001430  90.2302 269.8854 15.08838313 73574,6917.886,95.438,540.74,538.761,0.0
52503.0,STARLINK-3861,PAYLOAD,2023-08-31 07:46:00,15.08840751,0.0001246,53.2168,215.3371,87.4287,272.6848,5.6318e-05,6.09e-06,0.0,0 STARLINK-3861,1 52503U 22049BE  23243.32361205  .00000609  00000-0  56318-4 0  9990,2 52503  53.2168 215.3371 0001246  87.4287 272.6848 15.08840751 73436,6917.878,95.438,540.605,538.881,0.0
52503.0,STARLINK-3861,PAYLOAD,2023-09-01 04:26:00,15.08841893,0.0001462,53.2164,211.4714,98.2019,261.9139,5.7767e-05,6.32e-06,0.0,0 STARLINK-3861,1 52503U 22049BE  23244.18473138  .00000632  00000-0  57767-4 0  9999,2 52503  53.2164 211.4714 0001462  98.2019 261.9139 15.08841893 73569,6917.875,95.437,540.751,538.728,0.0
52503.0,STARLINK-3861,PAYLOAD,2023-09-01 23:30:38,15.08834942,8.07e-05,53.2162,207.9065,82.6668,277.4416,0.00013034,1.787e-05,0.0,0 STARLINK-3861,1 52503U 22049BE  23244.97961166  .00001787  00000-0  13034-3 0  9999,2 52503  53.2162 207.9065 0000807  82.6668 277.4416 15.08834942 73843,6917.896,95.438,540.319,539.203,0.0
52503.0,STARLINK-3861,PAYLOAD,2023-09-02 04:16:47,15.08837466,7.92e-05,53.2163,207.0144,85.4882,274.6201,0.00015944,2.251e-05,0.0,0 STARLINK-3861,1 52503U 22049BE  23245.17832997  .00002251  00000-0  15944-3 0  9990,2 52503  53.2163 207.0144 0000792  85.4882 274.6201 15.08837466 73716,6917.888,95.438,540.301,539.205,0.0
52503.0,STARLINK-3861,PAYLOAD,2023-09-03 00:56:48,15.08839816,0.0001082,53.2169,203.1499,83.3431,276.7684,7.8283e-06,-1.63e-06,0.0,0 STARLINK-3861,1 52503U 22049BE  23246.03945388 -.00000163  00000-0  78283-5 0  9993,2 52503  53.2169 203.1499 0001082  83.3431 276.7684 15.08839816 74004,6917.881,95.438,540.494,538.997,0.0
52503.0,STARLINK-3861,PAYLOAD,2023-09-03 07:18:20,15.08846666,0.0001327,53.2163,201.9571,91.8549,268.2595,7.2996e-05,8.74e-06,0.0,0 STARLINK-3861,1 52503U 22049BE  23246.30440741  .00000874  00000-0  72996-4 0  9998,2 52503  53.2163 201.9571 0001327  91.8549 268.2595 15.08846666 74043,6917.86,95.437,540.643,538.807,0.0
52503.0,STARLINK-3861,PAYLOAD,2023-09-03 13:39:53,15.08838706,0.0001297,53.2166,200.7699,92.5697,267.5444,2.356e-05,8.7e-07,0.0,0 STARLINK-3861,1 52503U 22049BE  23246.56937374  .00000087  00000-0  23560-4 0  9998,2 52503  53.2166 200.7699 0001297  92.5697 267.5444 15.08838706 74087,6917.884,95.438,540.647,538.852,0.0
52503.0,STARLINK-3861,PAYLOAD,2023-09-03 23:12:13,15.0882455,0.0001208,53.2167,198.9875,75.8563,284.2563,-7.8932e-05,-1.543e-05,0.0,0 STARLINK-3861,1 52503U 22049BE  23246.96682817 -.00001543  00000-0 -78932-4 0  9994,2 52503  53.2167 198.9875 0001208  75.8563 284.2563 15.08824550 74147,6917.928,95.439,540.628,538.957,0.0
52503.0,STARLINK-3861,PAYLOAD,2023-09-04 05:33:46,15.08830292,0.0001215,53.2168,197.7961,83.272,276.841,-2.9745e-05,-7.61e-06,0.0,0 STARLINK-3861,1 52503U 22049BE  23247.23178498 -.00000761  00000-0 -29745-4 0  9999,2 52503  53.2168 197.7961 0001215  83.2720 276.8410 15.08830292 74189,6917.91,95.438,540.616,538.935,0.0
52503.0,STARLINK-3861,PAYLOAD,2023-09-04 16:41:27,15.08836963,0.0001212,53.2168,195.7138,87.365,272.748,1.171e-05,-1.01e-06,0.0,0 STARLINK-3861,1 52503U 22049BE  23247.69546198 -.00000101  00000-0  11710-4 0  9995,2 52503  53.2168 195.7138 0001212  87.3650 272.7480 15.08836963 74258,6917.89,95.438,540.593,538.916,0.0
52503.0,STARLINK-3861,PAYLOAD,2023-09-05 06:59:55,15.08845196,0.000124,53.2169,193.0382,88.5542,271.5593,8.0114e-05,9.88e-06,0.0,0 STARLINK-3861,1 52503U 22049BE  23248.29161542  .00000988  00000-0  80114-4 0  9994,2 52503  53.2169 193.0382 0001240  88.5542 271.5593 15.08845196 74345,6917.865,95.437,540.587,538.872,0.0
52503.0,STARLINK-3861,PAYLOAD,2023-09-06 02:04:34,15.08831031,0.000128,53.217,189.4689,80.9369,279.1768,0.00016036,2.265e-05,0.0,0 STARLINK-3861,1 52503U 22049BE  23249.08650505  .00002265  00000-0  16036-3 0  9995,2 52503  53.2170 189.4689 0001280  80.9369 279.1768 15.08831031 74467,6917.908,95.438,540.658,538.887,0.0
52503.0,STARLINK-3861,PAYLOAD,2023-09-06 05:15:20,15.08836996,0.0001269,53.217,188.8738,84.0107,276.103,0.00014136,1.962e-05,0.0,0 STARLINK-3861,1 52503U 22049BE  23249.21898276  .00001962  00000-0  14136-3 0  9991,2 52503  53.2170 188.8738 0001269  84.0107 276.1030 15.08836996 74326,6917.89,95.438,540.632,538.877,0.0
52503.0,STARLINK-3861,PAYLOAD,2023-09-07 01:55:21,15.0884005,0.0001433,53.2171,185.0082,84.678,275.4376,4.2694e-05,3.92e-06,0.0,0 STARLINK-3861,1 52503U 22049BE  23250.08010505  .00000392  00000-0  42694-4 0  9996,2 52503  53.2171 185.0082 0001433  84.6780 275.4376 15.08840050 74459,6917.88,95.438,540.737,538.754,0.0
52503.0,STARLINK-3861,PAYLOAD,2023-09-08 01:46:09,15.08835061,7e-05,53.2156,180.5482,82.8199,277.2872,-0.00011776,-2.161e-05,0.0,0 STARLINK-3861,1 52503U 22049BE  23251.07371822 -.00002161  00000-0 -11776-3 0  9992,2 52503  53.2156 180.5482 0000700  82.8199 277.2872 15.08835061 74767,6917.895,95.438,540.245,539.276,0.0
52503.0,STARLINK-3861,PAYLOAD,2023-09-09 01:36:54,15.08848772,0.0001411,53.2191,176.0904,85.1135,275.0018,0.00032856,4.946e-05,0.0,0 STARLINK-3861,1 52503U 22049BE  23252.06729820  .00004946  00000-0  32856-3 0  9990,2 52503  53.2191 176.0904 0001411  85.1135 275.0018 15.08848772 74919,6917.854,95.437,540.695,538.742,0.0
52503.0,STARLINK-3861,PAYLOAD,2023-09-09 04:47:40,15.08853022,0.0001293,53.2175,175.4926,84.435,275.6789,0.00039947,6.078e-05,0.0,0 STARLINK-3861,1 52503U 22049BE  23252.19977433  .00006078  00000-0  39947-3 0  9995,2 52503  53.2175 175.4926 0001293  84.4350 275.6789 15.08853022 74776,6917.841,95.437,540.6,538.811,0.0
52503.0,STARLINK-3861,PAYLOAD,2023-09-09 19:06:09,15.08847446,9.75e-05,53.2185,172.8186,71.7426,288.3673,3.9191e-05,3.36e-06,0.0,0 STARLINK-3861,1 52503U 22049BE  23252.79594877  .00000336  00000-0  39191-4 0  9991,2 52503  53.2185 172.8186 0000975  71.7426 288.3673 15.08847446 75020,6917.858,95.437,540.397,539.048,0.0
52503.0,STARLINK-3861,PAYLOAD,2023-09-10 03:03:04,15.08855317,0.0001362,53.2173,171.3316,91.8147,268.3001,0.00012638,1.725e-05,0.0,0 STARLINK-3861,1 52503U 22049BE  23253.12714063  .00001725  00000-0  12638-3 0  9999,2 52503  53.2173 171.3316 0001362  91.8147 268.3001 15.08855317 75074,6917.834,95.437,540.641,538.756,0.0
52503.0,STARLINK-3861,PAYLOAD,2023-09-10 23:43:05,15.08839488,0.0001556,53.217,167.4636,114.1344,245.9811,-0.00017825,-3.124e-05,0.0,0 STARLINK-3861,1 52503U 22049BE  23253.98826331 -.00003124  00000-0 -17825-3 0  9995,2 52503  53.2170 167.4636 0001556 114.1344 245.9811 15.08839488 75201,6917.882,95.438,540.823,538.671,0.0
